     3.00           N                   E                   RINEX VERSION / TYPE
BRD_USR             ESA                 20190106 081726  UTCPGM / RUN BY / DATE
 GAL   5.0250E+01 -3.9062E-02 -1.6785E-03  0.0000E+00       IONOSPHERIC CORR
GAUT  0.0000000000E+00 0.000000000E+00      0 2035 GSTB   0 TIME SYSTEM CORR
GPGA -2.6484485716E-09 2.664535259E-15      0 2035 GSTB   0 TIME SYSTEM CORR
                                                            END OF HEADER
E19 2019 01 06 06 20 00-9.341281838715E-06 2.700062395888E-13 0.000000000000E+00
     3.800000000000E+01 2.534375000000E+01 3.527289782921E-09-1.735250929766E-01
     1.119449734688E-06 1.398628810421E-04 5.323439836502E-06 5.440602279663E+03
     2.280000000000E+04 5.401670932770E-08 1.241171525696E+00-4.470348358154E-08
     9.579683951146E-01 2.280625000000E+02 2.259388664378E+00-5.605590638208E-09
     3.407284784231E-10 2.580000000000E+02 2.035000000000E+03 0.000000000000E+00
     3.120000000000E+00 0.000000000000E+00-8.847564458847E-09 0.000000000000E+00
     2.350000000000E+04 0.000000000000E+00 0.000000000000E+00 0.000000000000E+00
E24 2019 01 06 06 20 00 6.300508859567E-03-1.971045548999E-11 0.000000000000E+00
     3.800000000000E+01 1.487812500000E+02 2.288309602994E-09-2.097516148390E+00
     6.809830665588E-06 4.640102852136E-04 1.246109604836E-05 5.440630025864E+03
     2.280000000000E+04-2.607703208923E-08-2.942897690793E+00-1.862645149231E-08
     9.879192611569E-01 8.181250000000E+01 4.395848688285E-01-5.084497504015E-09
    -7.750322832055E-11 2.580000000000E+02 2.035000000000E+03 0.000000000000E+00
     3.120000000000E+00 0.000000000000E+00 4.284083843231E-08 0.000000000000E+00
     2.350000000000E+04 0.000000000000E+00 0.000000000000E+00 0.000000000000E+00
E26 2019 01 06 06 20 00 5.051717860624E-03-4.338573944551E-11 0.000000000000E+00
     3.800000000000E+01-1.887812500000E+02 3.032626321059E-09 7.272709129070E-01
    -8.707866072655E-06 3.259632503614E-04 2.877786755562E-06 5.440611652374E+03
     2.280000000000E+04-7.450580596924E-09-8.570821469917E-01 7.636845111847E-08
     9.783235791725E-01 2.885625000000E+02-2.113144004838E+00-5.771668984609E-09
    -3.210848030423E-10 2.580000000000E+02 2.035000000000E+03 0.000000000000E+00
     3.120000000000E+00 0.000000000000E+00 4.656612873077E-10 0.000000000000E+00
     2.350000000000E+04 0.000000000000E+00 0.000000000000E+00 0.000000000000E+00
E31 2019 01 06 06 20 00 9.397924295627E-04-9.720224625198E-12 0.000000000000E+00
     3.800000000000E+01 1.702812500000E+02 2.349026417808E-09 6.854941228617E-01
     7.923692464828E-06 2.560676075518E-04 1.228414475918E-05 5.440633455276E+03
     2.280000000000E+04-9.313225746155E-09-2.949007364805E+00 1.061707735062E-07
     9.898912308402E-01 8.459375000000E+01-1.535508647824E+00-5.152357473513E-09
    -1.107188976008E-10 2.580000000000E+02 2.035000000000E+03 0.000000000000E+00
     3.120000000000E+00 0.000000000000E+00-2.328306436539E-10 0.000000000000E+00
     2.350000000000E+04 0.000000000000E+00 0.000000000000E+00 0.000000000000E+00
E36 2019 01 06 06 20 00 7.629548781551E-04-4.433786671143E-12 0.000000000000E+00
     3.800000000000E+01-1.685000000000E+02 2.958337512346E-09-2.903599525775E+00
    -7.769092917442E-06 3.252765163779E-04 1.594424247742E-06 5.440599527359E+03
     2.280000000000E+04 3.911554813385E-08-8.660289063115E-01 7.450580596924E-09
     9.852106697961E-01 3.185625000000E+02-1.628596486358E+00-5.683093866528E-09
    -2.889406069646E-10 2.580000000000E+02 2.035000000000E+03 0.000000000000E+00
     3.120000000000E+00 5.600000000000E+01 1.396983861923E-09 0.000000000000E+00
     2.350000000000E+04 0.000000000000E+00 0.000000000000E+00 0.000000000000E+00
E21 2019 01 06 06 20 00-5.130417412147E-04-1.904254531837E-12 0.000000000000E+00
     3.800000000000E+01 1.658125000000E+02 2.298310019552E-09 1.086498990713E+00
     7.655471563339E-06 4.888675175607E-05 1.119077205658E-05 5.440637735367E+03
     2.280000000000E+04 7.450580596924E-09-2.948975322511E+00-9.313225746155E-09
     9.899161311689E-01 1.150312500000E+02-3.671751154831E-01-5.059139304888E-09
    -7.536028191537E-11 2.580000000000E+02 2.035000000000E+03 0.000000000000E+00
     3.120000000000E+00 0.000000000000E+00-2.561137080193E-09 0.000000000000E+00
     2.355000000000E+04 0.000000000000E+00 0.000000000000E+00 0.000000000000E+00
E24 2019 01 06 06 20 00 6.300508859567E-03-1.971045548999E-11 0.000000000000E+00
     3.800000000000E+01 1.487812500000E+02 2.288309602994E-09-2.097516148390E+00
     6.809830665588E-06 4.640102852136E-04 1.246109604836E-05 5.440630025864E+03
     2.280000000000E+04-2.607703208923E-08-2.942897690793E+00-1.862645149231E-08
     9.879192611569E-01 8.181250000000E+01 4.395848688285E-01-5.084497504015E-09
    -7.750322832055E-11 2.580000000000E+02 2.035000000000E+03 0.000000000000E+00
     3.120000000000E+00 0.000000000000E+00 4.284083843231E-08 0.000000000000E+00
     2.355000000000E+04 0.000000000000E+00 0.000000000000E+00 0.000000000000E+00
E21 2019 01 06 06 20 00-5.130417994224E-04-1.918465386552E-12 0.000000000000E+00
     3.800000000000E+01 1.658125000000E+02 2.298310019552E-09 1.086498990713E+00
     7.655471563339E-06 4.888675175607E-05 1.119077205658E-05 5.440637735367E+03
     2.280000000000E+04 7.450580596924E-09-2.948975322511E+00-9.313225746155E-09
     9.899161311689E-01 1.150312500000E+02-3.671751154831E-01-5.059139304888E-09
    -7.536028191537E-11 5.210000000000E+02 2.035000000000E+03 0.000000000000E+00
     3.120000000000E+00 0.000000000000E+00-2.561137080193E-09-3.259629011154E-09
     2.357500000000E+04 0.000000000000E+00 0.000000000000E+00 0.000000000000E+00
E24 2019 01 06 06 20 00 6.300514563918E-03-1.969624463527E-11 0.000000000000E+00
     3.800000000000E+01 1.487812500000E+02 2.288309602994E-09-2.097516148390E+00
     6.809830665588E-06 4.640102852136E-04 1.246109604836E-05 5.440630025864E+03
     2.280000000000E+04-2.607703208923E-08-2.942897690793E+00-1.862645149231E-08
     9.879192611569E-01 8.181250000000E+01 4.395848688285E-01-5.084497504015E-09
    -7.750322832055E-11 5.210000000000E+02 2.035000000000E+03 0.000000000000E+00
     3.120000000000E+00 0.000000000000E+00 4.284083843231E-08 4.773028194904E-08
     2.357500000000E+04 0.000000000000E+00 0.000000000000E+00 0.000000000000E+00
E18 2019 01 06 05 50 00 5.627356877085E-03-2.845013113983E-11 0.000000000000E+00
     3.500000000000E+01 5.937500000000E-01 6.892429954516E-09-3.209890435335E-01
     2.477318048477E-07 1.664263270795E-01 4.621222615242E-06 5.289320903778E+03
     2.100000000000E+04-2.261251211166E-06-1.444061609431E+00 4.526227712631E-07
     8.817414905866E-01 2.613750000000E+02 1.437729700607E+00-1.199728544938E-08
    -2.660825119761E-10 5.210000000000E+02 2.035000000000E+03 0.000000000000E+00
     3.120000000000E+00 4.550000000000E+02 1.396983861923E-08 1.559965312481E-08
     2.369500000000E+04 0.000000000000E+00 0.000000000000E+00 0.000000000000E+00
E18 2019 01 06 05 50 00 5.627354781609E-03-2.845013113983E-11 0.000000000000E+00
     3.500000000000E+01 5.937500000000E-01 6.892429954516E-09-3.209890435335E-01
     2.477318048477E-07 1.664263270795E-01 4.621222615242E-06 5.289320903778E+03
     2.100000000000E+04-2.261251211166E-06-1.444061609431E+00 4.526227712631E-07
     8.817414905866E-01 2.613750000000E+02 1.437729700607E+00-1.199728544938E-08
    -2.660825119761E-10 2.580000000000E+02 2.035000000000E+03 0.000000000000E+00
     3.120000000000E+00 5.600000000000E+01 1.396983861923E-08 0.000000000000E+00
     2.370000000000E+04 0.000000000000E+00 0.000000000000E+00 0.000000000000E+00
E04 2019 01 06 06 20 00-1.942448434420E-04-7.858602657507E-12 0.000000000000E+00
     3.800000000000E+01 2.568750000000E+01 3.578363338911E-09-7.383660859226E-01
     1.190230250359E-06 8.324324153364E-05 5.284324288368E-06 5.440603532791E+03
     2.280000000000E+04-4.284083843231E-08 1.244506875050E+00-3.725290298462E-09
     9.522393840897E-01 2.234687500000E+02 1.963583955999E+00-5.622377051715E-09
     4.100170788571E-10 2.580000000000E+02 2.035000000000E+03 0.000000000000E+00
     3.120000000000E+00 0.000000000000E+00-7.916241884232E-09 0.000000000000E+00
     2.380000000000E+04 0.000000000000E+00 0.000000000000E+00 0.000000000000E+00
E18 2019 01 06 05 50 00 5.627354781609E-03-2.845013113983E-11 0.000000000000E+00
     3.500000000000E+01 5.937500000000E-01 6.892429954516E-09-3.209890435335E-01
     2.477318048477E-07 1.664263270795E-01 4.621222615242E-06 5.289320903778E+03
     2.100000000000E+04-2.261251211166E-06-1.444061609431E+00 4.526227712631E-07
     8.817414905866E-01 2.613750000000E+02 1.437729700607E+00-1.199728544938E-08
    -2.660825119761E-10 2.580000000000E+02 2.035000000000E+03 0.000000000000E+00
     3.120000000000E+00 5.600000000000E+01 1.396983861923E-08 0.000000000000E+00
     2.380000000000E+04 0.000000000000E+00 0.000000000000E+00 0.000000000000E+00
E04 2019 01 06 06 20 00-1.942451926880E-04-7.858602657507E-12 0.000000000000E+00
     3.800000000000E+01 2.568750000000E+01 3.578363338911E-09-7.383660859226E-01
     1.190230250359E-06 8.324324153364E-05 5.284324288368E-06 5.440603532791E+03
     2.280000000000E+04-4.284083843231E-08 1.244506875050E+00-3.725290298462E-09
     9.522393840897E-01 2.234687500000E+02 1.963583955999E+00-5.622377051715E-09
     4.100170788571E-10 5.210000000000E+02 2.035000000000E+03 0.000000000000E+00
     3.120000000000E+00 0.000000000000E+00-7.916241884232E-09-8.847564458847E-09
     2.381500000000E+04 0.000000000000E+00 0.000000000000E+00 0.000000000000E+00
